STARLINK-36933          
1 69196U 26114Q   26166.16494068  .00207053  00000+0  10250-2 0  9990
2 69196  53.1572 212.2760 0001174  42.5890 317.5223 15.80928479  4456
STARLINK-37419          
1 69197U 26114R   26166.16344207  .00189838  00000+0  94182-3 0  9997
2 69197  53.1570 212.2657 0001181  53.7836 306.3296 15.80931308  4453
STARLINK-37321          
1 69198U 26114S   26166.16269139  .00205332  00000+0  10167-2 0  9996
2 69198  53.1571 212.2610 0001708  33.6502 326.4629 15.80927338  4457
STARLINK-37406          
1 69199U 26114T   26166.16194020  .00222009  00000+0  10962-2 0  9996
2 69199  53.1570 212.2557 0001543  38.8089 321.3045 15.80940947  4458
STARLINK-37761          
1 69200U 26114U   26166.16119096  .00223575  00000+0  11051-2 0  9998
2 69200  53.1568 212.2497 0001120  57.4193 302.6938 15.80913163  4458
STARLINK-37754          
1 69201U 26114V   26166.22346507  .00150052  00000+0  74882-3 0  9996
2 69201  53.1566 211.9271 0001209 103.8474 256.2683 15.80925510  4460
STARLINK-37649          
1 69202U 26114W   26166.15967891  .00194186  00000+0  96147-3 0  9998
2 69202  53.1569 212.2398 0001395  34.2540 325.8572 15.80961829  4457
STARLINK-37604          
1 69203U 26114X   26166.15894132  .00188615  00000+0  93570-3 0  9993
2 69203  53.1568 212.2354 0001486  50.7713 309.3441 15.80935972  4457
STARLINK-37669          
1 69204U 26114Y   26166.15818980  .00196918  00000+0  97679-3 0  9990
2 69204  53.1570 212.2299 0001272  35.8745 324.2363 15.80913865  4457
STARLINK-37691          
1 69205U 26114Z   26166.16906878  .00174937  00000+0  98946-3 0  9991
2 69205  53.1575 212.3022 0002376  24.0719 336.0413 15.78085136  4450
STARLINK-37671          
1 69206U 26114AA  26166.16668980 -.00028920  00000+0 -16316-3 0  9994
2 69206  53.1580 212.2288 0001197  89.0925 299.0689 15.78070082  4491
STARLINK-37647          
1 69207U 26114AB  26166.15744329  .00244663  00000+0  12042-2 0  9999
2 69207  53.1569 212.2249 0002224  27.9910 332.1232 15.80945985  4458
STARLINK-37562          
1 69208U 26114AC  26166.16379625  .00164709  00000+0  93213-3 0  9996
2 69208  53.1580 212.2670 0001435  46.8613 313.2529 15.78106077  4450
STARLINK-37682          
1 69209U 26114AD  26166.15443955  .00208589  00000+0  10318-2 0  9993
2 69209  53.1568 212.2041 0001415  50.6767 309.4381 15.80940252  4457
STARLINK-37402          
1 69210U 26114AE  26166.15369122  .00250492  00000+0  12318-2 0  9990
2 69210  53.1569 212.1994 0002025  33.9620 326.1532 15.80949578  4450
STARLINK-37613          
1 69211U 26115A   26166.16668980  .00003452  00000+0  65103-4 0  9991
2 69211  97.2834 183.2630 0001164  92.1154 107.2268 15.49186153  4363
STARLINK-37713          
1 69212U 26115B   26166.16668980 -.00000990  00000+0 -16587-4 0  9990
2 69212  97.2845 183.3861 0001832  90.6924  43.9276 15.49117948  4364
STARLINK-37716          
1 69213U 26115C   26166.16668980 -.02035782  00000+0 -34946-1 0  9996
2 69213  97.2833 183.4428 0001734  92.6210 162.8011 15.54276090  4361
STARLINK-37620          
1 69214U 26115D   26166.14522044  .00032913  00000+0  60410-3 0  9991
2 69214  97.2835 183.2051 0000558 109.8957 250.2355 15.49199280  4346
STARLINK-37700          
1 69215U 26115E   26166.11862860  .00036585  00000+0  67058-3 0  9996
2 69215  97.2834 183.0894 0001199  80.7641 279.3746 15.49216646  4339
STARLINK-37766          
1 69216U 26115F   26166.16668980 -.02514207  00000+0 -34447-1 0  9999
2 69216  97.2843 183.4763 0001248  96.0469 239.9807 15.61017690  4367
STARLINK-37763          
1 69217U 26115G   26166.16668980 -.00939102  00000+0 -15837-1 0  9995
2 69217  97.2842 183.4340 0001494  75.5683 164.3952 15.54393393  4362
STARLINK-37724          
1 69218U 26115H   26166.16668980 -.02620057  00000+0 -33030-1 0  9999
2 69218  97.2845 183.5027 0001288  65.9896 340.8387 15.63310194  4360
STARLINK-37758          
1 69219U 26115J   26166.16668980 -.02553727  00000+0 -31741-1 0  9996
2 69219  97.2842 183.5101 0001464  69.3161 355.7799 15.63564306  4368
STARLINK-37201          
1 69220U 26115K   26166.16668980 -.02625145  00000+0 -32928-1 0  9990
2 69220  97.2840 183.5093 0001443  67.5415 352.3715 15.63443792  4363
STARLINK-37728          
1 69221U 26115L   26166.16668980 -.02540695  00000+0 -33957-1 0  9990
2 69221  97.2845 183.5098 0001145  52.1353 359.9371 15.61699033  4364
STARLINK-37760          
1 69222U 26115M   26166.16668980 -.02592699  00000+0 -30476-1 0  9995
2 69222  97.2839 183.5196 0001337  56.1898  19.5125 15.65026774  4364
STARLINK-37759          
1 69223U 26115N   26166.16668980 -.02232495  00000+0 -40116-1 0  9993
2 69223  97.2839 183.4409 0001792  86.3014 168.8342 15.53340052  4365
STARLINK-37725          
1 69224U 26115P   26166.16668980 -.02282942  00000+0 -42024-1 0  9996
2 69224  97.2837 183.4470 0001688  87.7730 181.2858 15.52760787  4367
STARLINK-37770          
1 69225U 26115Q   26166.16668980 -.02571505  00000+0 -28997-1 0  9996
2 69225  97.2842 183.5283 0001441  62.0998  35.9640 15.66025934  4363
