OBJECT_NAME,OBJECT_ID,EPOCH,MEAN_MOTION,ECCENTRICITY,INCLINATION,RA_OF_ASC_NODE,ARG_OF_PERICENTER,MEAN_ANOMALY,EPHEMERIS_TYPE,CLASSIFICATION_TYPE,NORAD_CAT_ID,ELEMENT_SET_NO,REV_AT_EPOCH,BSTAR,MEAN_MOTION_DOT,MEAN_MOTION_DDOT
STARLINK-36933,2026-114Q,2026-06-15T03:57:30.874752,15.80928479,.0001174,53.1572,212.2760,42.5890,317.5223,0,U,69196,999,445,.1025E-2,.207053E-2,0
STARLINK-37419,2026-114R,2026-06-15T03:55:21.394848,15.80931308,.0001181,53.1570,212.2657,53.7836,306.3296,0,U,69197,999,445,.94182E-3,.189838E-2,0
STARLINK-37321,2026-114S,2026-06-15T03:54:16.536096,15.80927338,.0001708,53.1571,212.2610,33.6502,326.4629,0,U,69198,999,445,.10167E-2,.205332E-2,0
STARLINK-37406,2026-114T,2026-06-15T03:53:11.633280,15.80940947,.0001543,53.1570,212.2557,38.8089,321.3045,0,U,69199,999,445,.10962E-2,.222009E-2,0
STARLINK-37761,2026-114U,2026-06-15T03:52:06.898944,15.80913163,.000112,53.1568,212.2497,57.4193,302.6938,0,U,69200,999,445,.11051E-2,.223575E-2,0
STARLINK-37754,2026-114V,2026-06-15T05:21:47.382048,15.80925510,.0001209,53.1566,211.9271,103.8474,256.2683,0,U,69201,999,446,.74882E-3,.150052E-2,0
STARLINK-37649,2026-114W,2026-06-15T03:49:56.257824,15.80961829,.0001395,53.1569,212.2398,34.2540,325.8572,0,U,69202,999,445,.96147E-3,.194186E-2,0
STARLINK-37604,2026-114X,2026-06-15T03:48:52.530048,15.80935972,.0001486,53.1568,212.2354,50.7713,309.3441,0,U,69203,999,445,.9357E-3,.188615E-2,0
STARLINK-37669,2026-114Y,2026-06-15T03:47:47.598720,15.80913865,.0001272,53.1570,212.2299,35.8745,324.2363,0,U,69204,999,445,.97679E-3,.196918E-2,0
STARLINK-37691,2026-114Z,2026-06-15T04:03:27.542592,15.78085136,.0002376,53.1575,212.3022,24.0719,336.0413,0,U,69205,999,445,.98946E-3,.174937E-2,0
STARLINK-37671,2026-114AA,2026-06-15T04:00:01.998720,15.78070082,.0001197,53.1580,212.2288,89.0925,299.0689,0,U,69206,999,449,-.16316E-3,-.2892E-3,0
STARLINK-37647,2026-114AB,2026-06-15T03:46:43.100256,15.80945985,.0002224,53.1569,212.2249,27.9910,332.1232,0,U,69207,999,445,.12042E-2,.244663E-2,0
STARLINK-37562,2026-114AC,2026-06-15T03:55:51.996000,15.78106077,.0001435,53.1580,212.2670,46.8613,313.2529,0,U,69208,999,445,.93213E-3,.164709E-2,0
STARLINK-37682,2026-114AD,2026-06-15T03:42:23.577120,15.80940252,.0001415,53.1568,212.2041,50.6767,309.4381,0,U,69209,999,445,.10318E-2,.208589E-2,0
STARLINK-37402,2026-114AE,2026-06-15T03:41:18.921408,15.80949578,.0002025,53.1569,212.1994,33.9620,326.1532,0,U,69210,999,445,.12318E-2,.250492E-2,0
STARLINK-37613,2026-115A,2026-06-15T04:00:01.998720,15.49186153,.0001164,97.2834,183.2630,92.1154,107.2268,0,U,69211,999,436,.65103E-4,.3452E-4,0
STARLINK-37713,2026-115B,2026-06-15T04:00:01.998720,15.49117948,.0001832,97.2845,183.3861,90.6924,43.9276,0,U,69212,999,436,-.16587E-4,-.99E-5,0
STARLINK-37716,2026-115C,2026-06-15T04:00:01.998720,15.54276090,.0001734,97.2833,183.4428,92.6210,162.8011,0,U,69213,999,436,-.34946E-1,-.2035782E-1,0
STARLINK-37620,2026-115D,2026-06-15T03:29:07.046016,15.49199280,.0000558,97.2835,183.2051,109.8957,250.2355,0,U,69214,999,434,.6041E-3,.32913E-3,0
STARLINK-37700,2026-115E,2026-06-15T02:50:49.511040,15.49216646,.0001199,97.2834,183.0894,80.7641,279.3746,0,U,69215,999,433,.67058E-3,.36585E-3,0
STARLINK-37766,2026-115F,2026-06-15T04:00:01.998720,15.61017690,.0001248,97.2843,183.4763,96.0469,239.9807,0,U,69216,999,436,-.34447E-1,-.2514207E-1,0
STARLINK-37763,2026-115G,2026-06-15T04:00:01.998720,15.54393393,.0001494,97.2842,183.4340,75.5683,164.3952,0,U,69217,999,436,-.15837E-1,-.939102E-2,0
STARLINK-37724,2026-115H,2026-06-15T04:00:01.998720,15.63310194,.0001288,97.2845,183.5027,65.9896,340.8387,0,U,69218,999,436,-.3303E-1,-.2620057E-1,0
STARLINK-37758,2026-115J,2026-06-15T04:00:01.998720,15.63564306,.0001464,97.2842,183.5101,69.3161,355.7799,0,U,69219,999,436,-.31741E-1,-.2553727E-1,0
STARLINK-37201,2026-115K,2026-06-15T04:00:01.998720,15.63443792,.0001443,97.2840,183.5093,67.5415,352.3715,0,U,69220,999,436,-.32928E-1,-.2625145E-1,0
STARLINK-37728,2026-115L,2026-06-15T04:00:01.998720,15.61699033,.0001145,97.2845,183.5098,52.1353,359.9371,0,U,69221,999,436,-.33957E-1,-.2540695E-1,0
STARLINK-37760,2026-115M,2026-06-15T04:00:01.998720,15.65026774,.0001337,97.2839,183.5196,56.1898,19.5125,0,U,69222,999,436,-.30476E-1,-.2592699E-1,0
STARLINK-37759,2026-115N,2026-06-15T04:00:01.998720,15.53340052,.0001792,97.2839,183.4409,86.3014,168.8342,0,U,69223,999,436,-.40116E-1,-.2232495E-1,0
STARLINK-37725,2026-115P,2026-06-15T04:00:01.998720,15.52760787,.0001688,97.2837,183.4470,87.7730,181.2858,0,U,69224,999,436,-.42024E-1,-.2282942E-1,0
STARLINK-37770,2026-115Q,2026-06-15T04:00:01.998720,15.66025934,.0001441,97.2842,183.5283,62.0998,35.9640,0,U,69225,999,436,-.28997E-1,-.2571505E-1,0
